STARLINK-3980           
1 52611U 22052P   23327.60347729 -.00000881  00000+0 -37264-4 0  9995
2 52611  53.2180  81.9448 0001707 113.5305 246.5866 15.08838710 84418
STARLINK-4002           
1 52612U 22052Q   23327.63153592  .00001084  00000+0  86179-4 0  9995
2 52612  53.2171  76.8196 0001463  88.3580 271.7580 15.08841185 84496
STARLINK-3921           
1 52613U 22052R   23327.68029026  .00000487  00000+0  48682-4 0  9998
2 52613  53.2193  66.6020 0001478  89.5854 270.5307 15.08849004 84635
STARLINK-3982           
1 52614U 22052S   23327.68397891 -.00000369  00000+0 -50672-5 0  9991
2 52614  53.2192  66.5833 0001746  75.2614 284.8571 15.08838090 84634
STARLINK-4011           
1 52615U 22052T   23327.59980037  .00000212  00000+0  31435-4 0  9992
2 52615  53.2173  81.9592 0001664 114.9295 245.1870 15.08840134 84401
STARLINK-4015           
1 52616U 22052U   23327.54413922 -.00000861  00000+0 -36004-4 0  9991
2 52616  53.2174  67.2128 0001475  93.9271 266.1890 15.08833315 84616
STARLINK-3996           
1 52617U 22052V   23327.60301744 -.00000517  00000+0 -14361-4 0  9997
2 52617  53.2187  66.9523 0001512  83.0114 277.1050 15.08839121 84615
STARLINK-3983           
1 52618U 22052W   23327.60669821 -.00000861  00000+0 -36018-4 0  9996
2 52618  53.2189  66.9337 0001417  94.2322 265.8832 15.08840058 84613
STARLINK-3741           
1 52619U 22052X   23327.66557810 -.00000029  00000+0  16271-4 0  9991
2 52619  53.2187  66.6600 0001636  83.4922 276.6257 15.08837336 84628
STARLINK-3975           
1 52620U 22052Y   23327.59612077 -.00000967  00000+0 -42684-4 0  9991
2 52620  53.2165  81.9795 0001520  93.7915 266.3251 15.08834242 84408
STARLINK-3984           
1 52621U 22052Z   23327.59198821 -.00001010  00000+0 -45375-4 0  9998
2 52621  53.2187  67.0033 0001379  89.6937 270.4213 15.08828399 84616
STARLINK-4008           
1 52622U 22052AA  23327.69179704 -.00000308  00000+0 -12762-5 0  9993
2 52622  53.2179  81.5493 0001608 108.8773 251.2393 15.08835720 84427
STARLINK-3986           
1 52623U 22052AB  23327.52205764 -.00000765  00000+0 -30006-4 0  9999
2 52623  53.2177  67.3125 0001537 103.1034 257.0130 15.08833033 84607
STARLINK-4009           
1 52624U 22052AC  23327.66285700 -.00001794  00000+0 -94710-4 0  9998
2 52624  53.2174  66.6601 0001536 101.7260 258.3904 15.08825003 84623
STARLINK-3988           
1 52625U 22052AD  23327.58461720  .00001448  00000+0  10907-3 0  9997
2 52625  53.2202  67.0365 0001508 110.1158 249.9997 15.08843142 84618
STARLINK-3990           
1 52626U 22052AE  23327.66189130  .00001028  00000+0  82684-4 0  9995
2 52626  53.2183  66.6841 0001513  94.3571 265.7594 15.08842978 84625
STARLINK-3992           
1 52627U 22052AF  23327.57357488 -.00001468  00000+0 -74160-4 0  9999
2 52627  53.2182  67.0805 0001318 101.4725 258.6415 15.08832233 84620
