[{"OBJECT_NAME":"STARLINK-3980","OBJECT_ID":"2022-052P","EPOCH":"2023-11-23T14:29:00.437856","MEAN_MOTION":15.0883871,"ECCENTRICITY":0.0001707,"INCLINATION":53.218,"RA_OF_ASC_NODE":81.9448,"ARG_OF_PERICENTER":113.5305,"MEAN_ANOMALY":246.5866,"EPHEMERIS_TYPE":0,"CLASSIFICATION_TYPE":"U","NORAD_CAT_ID":52611,"ELEMENT_SET_NO":999,"REV_AT_EPOCH":8441,"BSTAR":-3.7264e-5,"MEAN_MOTION_DOT":-8.81e-6,"MEAN_MOTION_DDOT":0},{"OBJECT_NAME":"STARLINK-4002","OBJECT_ID":"2022-052Q","EPOCH":"2023-11-23T15:09:24.703488","MEAN_MOTION":15.08841185,"ECCENTRICITY":0.0001463,"INCLINATION":53.2171,"RA_OF_ASC_NODE":76.8196,"ARG_OF_PERICENTER":88.358,"MEAN_ANOMALY":271.758,"EPHEMERIS_TYPE":0,"CLASSIFICATION_TYPE":"U","NORAD_CAT_ID":52612,"ELEMENT_SET_NO":999,"REV_AT_EPOCH":8449,"BSTAR":8.6179e-5,"MEAN_MOTION_DOT":1.084e-5,"MEAN_MOTION_DDOT":0},{"OBJECT_NAME":"STARLINK-3921","OBJECT_ID":"2022-052R","EPOCH":"2023-11-23T16:19:37.078464","MEAN_MOTION":15.08849004,"ECCENTRICITY":0.0001478,"INCLINATION":53.2193,"RA_OF_ASC_NODE":66.602,"ARG_OF_PERICENTER":89.5854,"MEAN_ANOMALY":270.5307,"EPHEMERIS_TYPE":0,"CLASSIFICATION_TYPE":"U","NORAD_CAT_ID":52613,"ELEMENT_SET_NO":999,"REV_AT_EPOCH":8463,"BSTAR":4.8682e-5,"MEAN_MOTION_DOT":4.87e-6,"MEAN_MOTION_DDOT":0},{"OBJECT_NAME":"STARLINK-3982","OBJECT_ID":"2022-052S","EPOCH":"2023-11-23T16:24:55.777824","MEAN_MOTION":15.0883809,"ECCENTRICITY":0.0001746,"INCLINATION":53.2192,"RA_OF_ASC_NODE":66.5833,"ARG_OF_PERICENTER":75.2614,"MEAN_ANOMALY":284.8571,"EPHEMERIS_TYPE":0,"CLASSIFICATION_TYPE":"U","NORAD_CAT_ID":52614,"ELEMENT_SET_NO":999,"REV_AT_EPOCH":8463,"BSTAR":-5.0672e-6,"MEAN_MOTION_DOT":-3.69e-6,"MEAN_MOTION_DDOT":0},{"OBJECT_NAME":"STARLINK-4011","OBJECT_ID":"2022-052T","EPOCH":"2023-11-23T14:23:42.751968","MEAN_MOTION":15.08840134,"ECCENTRICITY":0.0001664,"INCLINATION":53.2173,"RA_OF_ASC_NODE":81.9592,"ARG_OF_PERICENTER":114.9295,"MEAN_ANOMALY":245.187,"EPHEMERIS_TYPE":0,"CLASSIFICATION_TYPE":"U","NORAD_CAT_ID":52615,"ELEMENT_SET_NO":999,"REV_AT_EPOCH":8440,"BSTAR":3.1435e-5,"MEAN_MOTION_DOT":2.12e-6,"MEAN_MOTION_DDOT":0},{"OBJECT_NAME":"STARLINK-4015","OBJECT_ID":"2022-052U","EPOCH":"2023-11-23T13:03:33.628608","MEAN_MOTION":15.08833315,"ECCENTRICITY":0.0001475,"INCLINATION":53.2174,"RA_OF_ASC_NODE":67.2128,"ARG_OF_PERICENTER":93.9271,"MEAN_ANOMALY":266.189,"EPHEMERIS_TYPE":0,"CLASSIFICATION_TYPE":"U","NORAD_CAT_ID":52616,"ELEMENT_SET_NO":999,"REV_AT_EPOCH":8461,"BSTAR":-3.6004e-5,"MEAN_MOTION_DOT":-8.61e-6,"MEAN_MOTION_DDOT":0},{"OBJECT_NAME":"STARLINK-3996","OBJECT_ID":"2022-052V","EPOCH":"2023-11-23T14:28:20.706816","MEAN_MOTION":15.08839121,"ECCENTRICITY":0.0001512,"INCLINATION":53.2187,"RA_OF_ASC_NODE":66.9523,"ARG_OF_PERICENTER":83.0114,"MEAN_ANOMALY":277.105,"EPHEMERIS_TYPE":0,"CLASSIFICATION_TYPE":"U","NORAD_CAT_ID":52617,"ELEMENT_SET_NO":999,"REV_AT_EPOCH":8461,"BSTAR":-1.4361e-5,"MEAN_MOTION_DOT":-5.17e-6,"MEAN_MOTION_DDOT":0},{"OBJECT_NAME":"STARLINK-3983","OBJECT_ID":"2022-052W","EPOCH":"2023-11-23T14:33:38.725344","MEAN_MOTION":15.08840058,"ECCENTRICITY":0.0001417,"INCLINATION":53.2189,"RA_OF_ASC_NODE":66.9337,"ARG_OF_PERICENTER":94.2322,"MEAN_ANOMALY":265.8832,"EPHEMERIS_TYPE":0,"CLASSIFICATION_TYPE":"U","NORAD_CAT_ID":52618,"ELEMENT_SET_NO":999,"REV_AT_EPOCH":8461,"BSTAR":-3.6018e-5,"MEAN_MOTION_DOT":-8.61e-6,"MEAN_MOTION_DDOT":0},{"OBJECT_NAME":"STARLINK-3741","OBJECT_ID":"2022-052X","EPOCH":"2023-11-23T15:58:25.947840","MEAN_MOTION":15.08837336,"ECCENTRICITY":0.0001636,"INCLINATION":53.2187,"RA_OF_ASC_NODE":66.66,"ARG_OF_PERICENTER":83.4922,"MEAN_ANOMALY":276.6257,"EPHEMERIS_TYPE":0,"CLASSIFICATION_TYPE":"U","NORAD_CAT_ID":52619,"ELEMENT_SET_NO":999,"REV_AT_EPOCH":8462,"BSTAR":1.6271e-5,"MEAN_MOTION_DOT":-2.9e-7,"MEAN_MOTION_DDOT":0},{"OBJECT_NAME":"STARLINK-3975","OBJECT_ID":"2022-052Y","EPOCH":"2023-11-23T14:18:24.834528","MEAN_MOTION":15.08834242,"ECCENTRICITY":0.000152,"INCLINATION":53.2165,"RA_OF_ASC_NODE":81.9795,"ARG_OF_PERICENTER":93.7915,"MEAN_ANOMALY":266.3251,"EPHEMERIS_TYPE":0,"CLASSIFICATION_TYPE":"U","NORAD_CAT_ID":52620,"ELEMENT_SET_NO":999,"REV_AT_EPOCH":8440,"BSTAR":-4.2684e-5,"MEAN_MOTION_DOT":-9.67e-6,"MEAN_MOTION_DDOT":0},{"OBJECT_NAME":"STARLINK-3984","OBJECT_ID":"2022-052Z","EPOCH":"2023-11-23T14:12:27.781344","MEAN_MOTION":15.08828399,"ECCENTRICITY":0.0001379,"INCLINATION":53.2187,"RA_OF_ASC_NODE":67.0033,"ARG_OF_PERICENTER":89.6937,"MEAN_ANOMALY":270.4213,"EPHEMERIS_TYPE":0,"CLASSIFICATION_TYPE":"U","NORAD_CAT_ID":52621,"ELEMENT_SET_NO":999,"REV_AT_EPOCH":8461,"BSTAR":-4.5375e-5,"MEAN_MOTION_DOT":-1.01e-5,"MEAN_MOTION_DDOT":0},{"OBJECT_NAME":"STARLINK-4008","OBJECT_ID":"2022-052AA","EPOCH":"2023-11-23T16:36:11.264256","MEAN_MOTION":15.0883572,"ECCENTRICITY":0.0001608,"INCLINATION":53.2179,"RA_OF_ASC_NODE":81.5493,"ARG_OF_PERICENTER":108.8773,"MEAN_ANOMALY":251.2393,"EPHEMERIS_TYPE":0,"CLASSIFICATION_TYPE":"U","NORAD_CAT_ID":52622,"ELEMENT_SET_NO":999,"REV_AT_EPOCH":8442,"BSTAR":-1.2762e-6,"MEAN_MOTION_DOT":-3.08e-6,"MEAN_MOTION_DDOT":0},{"OBJECT_NAME":"STARLINK-3986","OBJECT_ID":"2022-052AB","EPOCH":"2023-11-23T12:31:45.780096","MEAN_MOTION":15.08833033,"ECCENTRICITY":0.0001537,"INCLINATION":53.2177,"RA_OF_ASC_NODE":67.3125,"ARG_OF_PERICENTER":103.1034,"MEAN_ANOMALY":257.013,"EPHEMERIS_TYPE":0,"CLASSIFICATION_TYPE":"U","NORAD_CAT_ID":52623,"ELEMENT_SET_NO":999,"REV_AT_EPOCH":8460,"BSTAR":-3.0006e-5,"MEAN_MOTION_DOT":-7.65e-6,"MEAN_MOTION_DDOT":0},{"OBJECT_NAME":"STARLINK-4009","OBJECT_ID":"2022-052AC","EPOCH":"2023-11-23T15:54:30.844800","MEAN_MOTION":15.08825003,"ECCENTRICITY":0.0001536,"INCLINATION":53.2174,"RA_OF_ASC_NODE":66.6601,"ARG_OF_PERICENTER":101.726,"MEAN_ANOMALY":258.3904,"EPHEMERIS_TYPE":0,"CLASSIFICATION_TYPE":"U","NORAD_CAT_ID":52624,"ELEMENT_SET_NO":999,"REV_AT_EPOCH":8462,"BSTAR":-9.471e-5,"MEAN_MOTION_DOT":-1.794e-5,"MEAN_MOTION_DDOT":0},{"OBJECT_NAME":"STARLINK-3988","OBJECT_ID":"2022-052AD","EPOCH":"2023-11-23T14:01:50.926080","MEAN_MOTION":15.08843142,"ECCENTRICITY":0.0001508,"INCLINATION":53.2202,"RA_OF_ASC_NODE":67.0365,"ARG_OF_PERICENTER":110.1158,"MEAN_ANOMALY":249.9997,"EPHEMERIS_TYPE":0,"CLASSIFICATION_TYPE":"U","NORAD_CAT_ID":52625,"ELEMENT_SET_NO":999,"REV_AT_EPOCH":8461,"BSTAR":0.00010907,"MEAN_MOTION_DOT":1.448e-5,"MEAN_MOTION_DDOT":0},{"OBJECT_NAME":"STARLINK-3990","OBJECT_ID":"2022-052AE","EPOCH":"2023-11-23T15:53:07.408320","MEAN_MOTION":15.08842978,"ECCENTRICITY":0.0001513,"INCLINATION":53.2183,"RA_OF_ASC_NODE":66.6841,"ARG_OF_PERICENTER":94.3571,"MEAN_ANOMALY":265.7594,"EPHEMERIS_TYPE":0,"CLASSIFICATION_TYPE":"U","NORAD_CAT_ID":52626,"ELEMENT_SET_NO":999,"REV_AT_EPOCH":8462,"BSTAR":8.2684e-5,"MEAN_MOTION_DOT":1.028e-5,"MEAN_MOTION_DDOT":0},{"OBJECT_NAME":"STARLINK-3992","OBJECT_ID":"2022-052AF","EPOCH":"2023-11-23T13:45:56.869632","MEAN_MOTION":15.08832233,"ECCENTRICITY":0.0001318,"INCLINATION":53.2182,"RA_OF_ASC_NODE":67.0805,"ARG_OF_PERICENTER":101.4725,"MEAN_ANOMALY":258.6415,"EPHEMERIS_TYPE":0,"CLASSIFICATION_TYPE":"U","NORAD_CAT_ID":52627,"ELEMENT_SET_NO":999,"REV_AT_EPOCH":8462,"BSTAR":-7.416e-5,"MEAN_MOTION_DOT":-1.468e-5,"MEAN_MOTION_DDOT":0}]
